NORAD_CAT_ID,OBJECT_NAME,OBJECT_TYPE,EPOCH,MEAN_MOTION,ECCENTRICITY,INCLINATION,RA_OF_ASC_NODE,ARG_OF_PERICENTER,MEAN_ANOMALY,BSTAR,MEAN_MOTION_DOT,MEAN_MOTION_DDOT,TLE_LINE0,TLE_LINE1,TLE_LINE2,SEMIMAJOR_AXIS,PERIOD,APOGEE,PERIGEE,DECAYED
51886.0,STARLINK-3565,PAYLOAD,2022-06-19 20:00:01,15.087693,0.000188,53.2171,339.2657,46.2334,197.2884,0.0025148,0.00039885,0.0,0 STARLINK-3565,1 51886U 22022AL  22170.83334491  .00039885  00000-0  25148-2 0  9998,2 51886  53.2171 339.2657 0001880  46.2334 197.2884 15.08769300 18101,6918.096,95.442,541.262,538.661,0.0
51886.0,STARLINK-3565,PAYLOAD,2022-06-19 22:00:00,15.0875465,0.0001847,53.2169,338.8917,44.5601,291.8471,0.0055809,0.00089452,0.0,0 STARLINK-3565,1 51886U 22022AL  22170.91667824  .00089452  00000-0  55809-2 0  9998,2 51886  53.2169 338.8917 0001847  44.5601 291.8471 15.08754650  1302,6918.141,95.443,541.284,538.729,0.0
51886.0,STARLINK-3565,PAYLOAD,2022-06-20 12:00:00,15.08866808,0.0001878,53.2169,336.2712,56.5887,210.0703,-0.0025238,-0.0004026,0.0,0 STARLINK-3565,1 51886U 22022AL  22171.50001157 -.00040260  00000-0 -25238-2 0  9994,2 51886  53.2169 336.2712 0001878  56.5887 210.0703 15.08866808 18218,6917.7980000000025,95.436,540.9630000000002,538.364,0.0
51886.0,STARLINK-3565,PAYLOAD,2022-06-20 14:00:01,15.08869088,0.0001917,53.2171,335.8958,54.0961,305.4666,-0.0036924,-0.00058622,0.0,0 STARLINK-3565,1 51886U 22022AL  22171.58334491 -.00058622  00000-0 -36924-2 0  9997,2 51886  53.2171 335.8958 0001917  54.0961 305.4666 15.08869088  1300,6917.791,95.436,540.9830000000002,538.33,0.0
51886.0,STARLINK-3565,PAYLOAD,2022-06-20 22:00:00,15.08815056,0.0001997,53.2169,334.4027,47.0472,324.1251,0.003342,0.00053266,0.0,0 STARLINK-3565,1 51886U 22022AL  22171.91667824  .00053266  00000-0  33420-2 0  9998,2 51886  53.2169 334.4027 0001997  47.0472 324.1251 15.08815056  1300,6917.956999999999,95.439,541.203,538.44,0.0
51886.0,STARLINK-3565,PAYLOAD,2022-06-21 06:00:00,15.08828733,0.0001832,53.217,332.9045,51.4986,331.2679,0.0023424,0.00037177,0.0,0 STARLINK-3565,1 51886U 22022AL  22172.25001157  .00037177  00000-0  23424-2 0  9993,2 51886  53.2170 332.9045 0001832  51.4986 331.2679 15.08828733 18321,6917.915,95.438,541.047,538.512,0.0
51886.0,STARLINK-3565,PAYLOAD,2022-06-21 14:00:01,15.08883398,0.0001886,53.2172,331.4088,50.6468,343.71,-0.0042951,-0.00068081,0.0,0 STARLINK-3565,1 51886U 22022AL  22172.58334491 -.00068081  00000-0 -42951-2 0  9995,2 51886  53.2172 331.4088 0001886  50.6468 343.7100 15.08883398  1304,6917.748000000001,95.435,540.9169999999998,538.308,0.0
51886.0,STARLINK-3565,PAYLOAD,2022-06-21 22:00:00,15.088269199999996,0.0001927,53.217,329.9135,43.072,2.9019,0.00019,2.736e-05,0.0,0 STARLINK-3565,1 51886U 22022AL  22172.91667824  .00002736  00000-0  19000-3 0  9994,2 51886  53.2170 329.9135 0001927  43.0720   2.9019 15.08826920 18422,6917.92,95.438,541.118,538.452,0.0
51886.0,STARLINK-3565,PAYLOAD,2022-06-22 14:00:01,15.08838997,0.0001818,53.2174,326.9173,46.7021,22.4292,-0.0011169,-0.00018019,0.0,0 STARLINK-3565,1 51886U 22022AL  22173.58334491 -.00018019  00000-0 -11169-2 0  9999,2 51886  53.2174 326.9173 0001818  46.7021  22.4292 15.08838997  1304,6917.8830000000025,95.438,541.006,538.491,0.0
51886.0,STARLINK-3565,PAYLOAD,2022-06-22 22:00:00,15.08817247,0.0001919,53.2171,325.4243,41.3645,39.3503,0.0026823,0.00042633,0.0,0 STARLINK-3565,1 51886U 22022AL  22173.91667824  .00042633  00000-0  26823-2 0  9995,2 51886  53.2171 325.4243 0001919  41.3645  39.3503 15.08817247  1305,6917.95,95.439,541.1419999999998,538.487,0.0
51886.0,STARLINK-3565,PAYLOAD,2022-06-23 06:00:00,15.08823779,0.00017,53.2174,323.9261,46.2536,46.0584,0.0027436,0.00043628,0.0,0 STARLINK-3565,1 51886U 22022AL  22174.25001157  .00043628  00000-0  27436-2 0  9990,2 51886  53.2174 323.9261 0001700  46.2536  46.0584 15.08823779 18626,6917.93,95.439,540.971,538.619,0.0
51886.0,STARLINK-3565,PAYLOAD,2022-06-23 14:00:01,15.08862803,0.0001769,53.2175,322.4306,45.1556,58.7425,-0.0036866,-0.00058521,0.0,0 STARLINK-3565,1 51886U 22022AL  22174.58334491 -.00058521  00000-0 -36866-2 0  9993,2 51886  53.2175 322.4306 0001769  45.1556  58.7425 15.08862803  1308,6917.811,95.436,540.899,538.452,0.0
51886.0,STARLINK-3565,PAYLOAD,2022-06-23 22:00:00,15.08821424,0.0001847,53.2172,320.9349,39.1005,76.3983,0.0021056,0.00033365,0.0,0 STARLINK-3565,1 51886U 22022AL  22174.91667824  .00033365  00000-0  21056-2 0  9991,2 51886  53.2172 320.9349 0001847  39.1005  76.3983 15.08821424 18727,6917.937,95.439,541.08,538.524,0.0
51886.0,STARLINK-3565,PAYLOAD,2022-06-24 14:00:01,15.08842728,0.0001688,53.2175,317.9415,43.0521,95.5698,-0.0015355,-0.00024644,0.0,0 STARLINK-3565,1 51886U 22022AL  22175.58334491 -.00024644  00000-0 -15355-2 0  9993,2 51886  53.2175 317.9415 0001688  43.0521  95.5698 15.08842728 18827,6917.871999999999,95.437,540.905,538.569,0.0
51886.0,STARLINK-3565,PAYLOAD,2022-06-24 22:00:01,15.08830785,0.0001786999999999,53.217,316.4456,38.69300000000001,111.5827,0.0013042,0.00020524,0.0,0 STARLINK-3565,1 51886U 22022AL  22175.91668981  .00020524  00000-0  13042-2 0  9996,2 51886  53.2170 316.4456 0001787  38.6930 111.5827 15.08830785  1303,6917.909000000002,95.438,541.01,538.5369999999998,0.0
51886.0,STARLINK-3565,PAYLOAD,2022-06-25 06:00:00,15.08820475,0.0001561999999999,53.2171,314.9476,44.4963,117.3157,0.0028071,0.00044646,0.0,0 STARLINK-3565,1 51886U 22022AL  22176.25001157  .00044646  00000-0  28071-2 0  9999,2 51886  53.2171 314.9476 0001562  44.4963 117.3157 15.08820475 18922,6917.94,95.439,540.886,538.724,0.0
51886.0,STARLINK-3565,PAYLOAD,2022-06-25 14:00:01,15.08859786,0.0001694,53.2172,313.4525,43.7902,129.6123,-0.0012974,-0.00020888,0.0,0 STARLINK-3565,1 51886U 22022AL  22176.58334491 -.00020888  00000-0 -12974-2 0  9994,2 51886  53.2172 313.4525 0001694  43.7902 129.6123 15.08859786  1303,6917.82,95.436,540.857,538.513,0.0
51886.0,STARLINK-3565,PAYLOAD,2022-06-25 22:00:00,15.08867905,0.0001815,53.2167,311.9564,41.1963,143.8202,-0.0020731,-0.00033156,0.0,0 STARLINK-3565,1 51886U 22022AL  22176.91667824 -.00033156  00000-0 -20731-2 0  9992,2 51886  53.2167 311.9564 0001815  41.1963 143.8202 15.08867905 19023,6917.795,95.436,540.9159999999998,538.405,0.0
51886.0,STARLINK-3565,PAYLOAD,2022-06-26 14:00:01,15.08860935,0.000175,53.2168,308.9634,45.1078,163.1765,-0.0036651,-0.00058181,0.0,0 STARLINK-3565,1 51886U 22022AL  22177.58335648 -.00058181  00000-0 -36651-2 0  9995,2 51886  53.2168 308.9634 0001750  45.1078 163.1765 15.08860935  1304,6917.816,95.436,540.8919999999998,538.471,0.0
51886.0,STARLINK-3565,PAYLOAD,2022-06-26 22:00:00,15.08832786,0.000178,53.2164,307.4672,40.5482,179.268,0.00021056,3.064e-05,0.0,0 STARLINK-3565,1 51886U 22022AL  22177.91667824  .00003064  00000-0  21056-3 0  9998,2 51886  53.2164 307.4672 0001780  40.5482 179.2680 15.08832786 19178,6917.901999999999,95.438,540.999,538.536,0.0
51886.0,STARLINK-3565,PAYLOAD,2022-06-27 14:00:01,15.08852521,0.0001718,53.2167,304.4744,42.19,200.8014,-0.00388,-0.00061533,0.0,0 STARLINK-3565,1 51886U 22022AL  22178.58334491 -.00061533  00000-0 -38800-2 0  9994,2 51886  53.2167 304.4744 0001718  42.1900 200.8014 15.08852521  1309,6917.842,95.437,540.896,538.519,0.0
51886.0,STARLINK-3565,PAYLOAD,2022-06-27 22:00:00,15.08827915,0.000173,53.2165,302.9781,37.3684,217.206,-0.0004969999999999,-8.187e-05,0.0,0 STARLINK-3565,1 51886U 22022AL  22178.91667824 -.00008187  00000-0 -49700-3 0  9998,2 51886  53.2165 302.9781 0001730  37.3684 217.2060 15.08827915  1302,6917.917,95.438,540.979,538.586,0.0
51886.0,STARLINK-3565,PAYLOAD,2022-06-28 06:00:00,15.08802459,0.0001592,53.2167,301.4801,43.4346,222.7176,0.002899,0.00046104,0.0,0 STARLINK-3565,1 51886U 22022AL  22179.25001157  .00046104  00000-0  28990-2 0  9993,2 51886  53.2167 301.4801 0001592  43.4346 222.7176 15.08802459 19382,6917.995,95.44,540.961,538.759,0.0
51886.0,STARLINK-3565,PAYLOAD,2022-06-28 14:00:01,15.08830774,0.0001773,53.2168,299.9855,40.8641,236.8542,-0.00085157,-0.00013812,0.0,0 STARLINK-3565,1 51886U 22022AL  22179.58334491 -.00013812  00000-0 -85157-3 0  9990,2 51886  53.2168 299.9855 0001773  40.8641 236.8542 15.08830774  1300,6917.909000000002,95.438,541.0,538.547,0.0
51886.0,STARLINK-3565,PAYLOAD,2022-06-28 22:00:00,15.08844462,0.0001792,53.2168,298.4891,37.8017,251.4916,-0.0012295,-0.00019805,0.0,0 STARLINK-3565,1 51886U 22022AL  22179.91667824 -.00019805  00000-0 -12295-2 0  9996,2 51886  53.2168 298.4891 0001792  37.8017 251.4916 15.08844462 19483,6917.8669999999975,95.437,540.971,538.492,0.0
51886.0,STARLINK-3565,PAYLOAD,2022-06-29 14:00:01,15.08844465,0.0001859,53.2172,295.4967,40.7994,271.6756,-0.00079637,-0.00012942,0.0,0 STARLINK-3565,1 51886U 22022AL  22180.58334491 -.00012942  00000-0 -79637-3 0  9991,2 51886  53.2172 295.4967 0001859  40.7994 271.6756 15.08844465  1301,6917.8669999999975,95.437,541.018,538.446,0.0
51886.0,STARLINK-3565,PAYLOAD,2022-06-29 22:00:00,15.08860715,0.0001851,53.2172,294.0002,38.4551,285.6111,-0.0016484,-0.00026442,0.0,0 STARLINK-3565,1 51886U 22022AL  22180.91667824 -.00026442  00000-0 -16484-2 0  9997,2 51886  53.2172 294.0002 0001851  38.4551 285.6111 15.08860715  1307,6917.816999999999,95.436,540.9630000000002,538.4019999999998,0.0
51886.0,STARLINK-3565,PAYLOAD,2022-06-30 14:00:01,15.08861601,0.0001887,53.2176,291.0079,40.3432,306.9396,-0.0014689,-0.00023604,0.0,0 STARLINK-3565,1 51886U 22022AL  22181.58334491 -.00023604  00000-0 -14689-2 0  9994,2 51886  53.2176 291.0079 0001887  40.3432 306.9396 15.08861601  1308,6917.814,95.436,540.985,538.374,0.0
51886.0,STARLINK-3565,PAYLOAD,2022-06-30 22:00:00,15.08865494,0.000182,53.2173,289.5111,37.3017,321.5922,-0.0035631,-0.0005658999999999,0.0,0 STARLINK-3565,1 51886U 22022AL  22181.91667824 -.00056590  00000-0 -35631-2 0  9990,2 51886  53.2173 289.5111 0001820  37.3017 321.5922 15.08865494 19789,6917.802,95.436,540.927,538.408,0.0
